     3.04           N: GNSS NAV DATA    I: IRNSS            RINEX VERSION / TYPE
JPS2RIN v.2.1.223   JAVAD GNSS          20230311 000357 UTC PGM / RUN BY / DATE
    18                                                      LEAP SECONDS
ARHT                                    MARKER NAME         COMMENT
66001M005                               MARKER NUMBER       COMMENT
 -1312626.5320   311171.1250 -6213081.9240                  COMMENT
This data is provided as a public service by NASA/JPL.      COMMENT
No warranty is expressed or implied regarding suitability   COMMENT
for use.  For further information, contact:                 COMMENT
ggnops at jpl dot nasa dot gov                              COMMENT
                                                            END OF HEADER
I09 2023 03 10 08 36 00 7.216730155051D-04 1.875832822407D-11 0.000000000000D+00
     1.950000000000D+02 1.296875000000D+02 4.660194115791D-09 1.250108383986D+00
     4.235655069351D-06 2.017319086008D-03-1.632049679756D-05 6.493486639023D+03
     4.629600000000D+05 2.048909664154D-07-1.209855268471D+00-1.862645149231D-08
     5.031386003480D-01 5.746250000000D+02-3.017699451249D+00-4.448756737146D-09
     1.178620522847D-10 0.000000000000D+00 2.252000000000D+03 0.000000000000D+00
     2.000000000000D+00 0.000000000000D+00-1.862645000000D-09 1.950000000000D+02
     4.631640000000D+05 0.000000000000D+00
I09 2023 03 10 08 50 24 7.216893136501D-04 1.875832822407D-11 0.000000000000D+00
     1.960000000000D+02 1.303750000000D+02 4.655908222980D-09 1.313094640805D+00
     4.269182682037D-06 2.017185906880D-03-1.607835292816D-05 6.493486133575D+03
     4.638240000000D+05 2.160668373108D-07-1.209857353129D+00 3.725290298462D-09
     5.031388475811D-01 5.675625000000D+02-3.017681720682D+00-4.451613999020D-09
     1.303625729816D-10 0.000000000000D+00 2.252000000000D+03 0.000000000000D+00
     2.000000000000D+00 0.000000000000D+00-1.862645000000D-09 1.960000000000D+02
     4.640760000000D+05 0.000000000000D+00
I09 2023 03 10 09 05 36 7.217065431178D-04 1.887201506179D-11 0.000000000000D+00
     1.970000000000D+02 1.305000000000D+02 4.650193699233D-09 1.379580534141D+00
     4.284083843231D-06 2.017246326432D-03-1.583248376846D-05 6.493485816956D+03
     4.647360000000D+05 2.235174179077D-07-1.209862195388D+00 4.097819328308D-08
     5.031389090237D-01 5.604375000000D+02-3.017661484136D+00-4.453042629957D-09
     1.439345668810D-10 0.000000000000D+00 2.252000000000D+03 0.000000000000D+00
     2.000000000000D+00 0.000000000000D+00-1.862645000000D-09 1.970000000000D+02
     4.649880000000D+05 0.000000000000D+00
I09 2023 03 10 09 20 48 7.217442616820D-04 1.887201506179D-11 0.000000000000D+00
     1.980000000000D+02 1.299375000000D+02 4.644479175486D-09 1.444309511140D+00
     4.269182682037D-06 2.018126775511D-03-1.562014222145D-05 6.493497772217D+03
     4.656480000000D+05 2.235174179077D-07-1.209866625104D+00 7.823109626770D-08
     5.031392308657D-01 5.543125000000D+02-3.015885206079D+00-4.453042629957D-09
     1.585780339831D-10 0.000000000000D+00 2.252000000000D+03 0.000000000000D+00
     2.000000000000D+00 0.000000000000D+00-1.862645000000D-09 1.980000000000D+02
     4.658520000000D+05 0.000000000000D+00
I09 2023 03 10 09 36 00 7.217633537948D-04 1.978150976356D-11 0.000000000000D+00
     1.990000000000D+02 1.288750000000D+02 4.637336020802D-09 1.511870464936D+00
     4.235655069351D-06 2.017787774093D-03-1.544132828712D-05 6.493490392685D+03
     4.665600000000D+05 2.160668373108D-07-1.209870949490D+00 1.154839992523D-07
     5.031394064158D-01 5.490625000000D+02-3.016940391334D+00-4.450185368083D-09
     1.732215010851D-10 0.000000000000D+00 2.252000000000D+03 0.000000000000D+00
     2.000000000000D+00 0.000000000000D+00-1.862645000000D-09 1.990000000000D+02
     4.667640000000D+05 0.000000000000D+00
I09 2023 03 10 09 50 24 7.217801176012D-04 1.978150976356D-11 0.000000000000D+00
     2.000000000000D+02 1.275000000000D+02 4.627335604244D-09 1.574211939149D+00
     4.190951585770D-06 2.017984283157D-03-1.529976725578D-05 6.493494441986D+03
     4.674240000000D+05 2.011656761169D-07-1.209875278265D+00 1.452863216400D-07
     5.031395805031D-01 5.447500000000D+02-3.016276718067D+00-4.445899475273D-09
     1.871506527187D-10 0.000000000000D+00 2.252000000000D+03 0.000000000000D+00
     2.000000000000D+00 0.000000000000D+00-1.862645000000D-09 2.000000000000D+02
     4.676760000000D+05 0.000000000000D+00
I09 2023 03 10 10 05 36 7.217982783914D-04 1.989519660128D-11 0.000000000000D+00
     2.010000000000D+02 1.259375000000D+02 4.617335187687D-09 1.640087030539D+00
     4.138797521591D-06 2.018112107180D-03-1.518428325653D-05 6.493498254776D+03
     4.683360000000D+05 1.788139343262D-07-1.209880391163D+00 1.788139343262D-07
     5.031398262733D-01 5.410000000000D+02-3.015646052620D+00-4.440184951526D-09
     2.017941198208D-10 0.000000000000D+00 2.252000000000D+03 0.000000000000D+00
     2.000000000000D+00 0.000000000000D+00-1.862645000000D-09 2.010000000000D+02
     4.685880000000D+05 0.000000000000D+00
I09 2023 03 10 10 20 48 7.218169048429D-04 1.989519660128D-11 0.000000000000D+00
     2.020000000000D+02 1.241875000000D+02 4.604477509256D-09 1.706915510031D+00
     4.086643457413D-06 2.018000348471D-03-1.510232686996D-05 6.493495929718D+03
     4.692480000000D+05 1.527369022369D-07-1.209882728906D+00 2.048909664154D-07
     5.031398262733D-01 5.381250000000D+02-3.015970558571D+00-4.433041796842D-09
     2.157232714544D-10 0.000000000000D+00 2.252000000000D+03 0.000000000000D+00
     2.000000000000D+00 0.000000000000D+00-1.862645000000D-09 2.020000000000D+02
     4.695000000000D+05 0.000000000000D+00
I09 2023 03 10 10 36 00 7.218350656331D-04 1.989519660128D-11 0.000000000000D+00
     2.030000000000D+02 1.224375000000D+02 4.590191199888D-09 1.772916315824D+00
     4.041939973831D-06 2.018003026024D-03-1.505389809608D-05 6.493498994827D+03
     4.701600000000D+05 1.229345798492D-07-1.209888563024D+00 2.235174179077D-07
     5.031402592971D-01 5.361250000000D+02-3.015465029674D+00-4.423041380284D-09
     2.292952653539D-10 0.000000000000D+00 2.252000000000D+03 0.000000000000D+00
     2.000000000000D+00 0.000000000000D+00-1.862645000000D-09 2.030000000000D+02
     4.703640000000D+05 0.000000000000D+00
I09 2023 03 10 10 50 24 7.218518294394D-04 1.978150976356D-11 0.000000000000D+00
     2.040000000000D+02 1.210625000000D+02 4.574476259583D-09 1.836653393403D+00
     4.015862941742D-06 2.018360071816D-03-1.503899693489D-05 6.493493925095D+03
     4.710240000000D+05 9.313225746155D-08-1.209895871762D+00 2.346932888031D-07
     5.031410200145D-01 5.351875000000D+02-3.016194238745D+00-4.413040963727D-09
     2.407243128482D-10 0.000000000000D+00 2.252000000000D+03 0.000000000000D+00
     2.000000000000D+00 0.000000000000D+00-1.862645000000D-09 2.040000000000D+02
     4.712760000000D+05 0.000000000000D+00
I09 2023 03 10 11 05 36 7.218699902296D-04 1.989519660128D-11 0.000000000000D+00
     2.050000000000D+02 1.200625000000D+02 4.560189950216D-09 1.902517356376D+00
     4.012137651443D-06 2.018062048592D-03-1.505762338638D-05 6.493498165131D+03
     4.719360000000D+05 5.960464477539D-08-1.209898756637D+00 2.421438694000D-07
     5.031410682908D-01 5.351250000000D+02-3.015554226715D+00-4.401611916233D-09
     2.525105180766D-10 0.000000000000D+00 2.252000000000D+03 0.000000000000D+00
     2.000000000000D+00 0.000000000000D+00-1.862645000000D-09 2.050000000000D+02
     4.721880000000D+05 0.000000000000D+00
I09 2023 03 10 11 20 48 7.219105027616D-04 2.000888343900D-11 0.000000000000D+00
     2.060000000000D+02 1.198750000000D+02 4.544475009911D-09 1.968068687903D+00
     4.041939973831D-06 2.017289167270D-03-1.510232686996D-05 6.493506216049D+03
     4.728480000000D+05 2.980232238770D-08-1.209901037326D+00 2.458691596985D-07
     5.031398774755D-01 5.361250000000D+02-3.014599908198D+00-4.388754237801D-09
     2.628680923683D-10 0.000000000000D+00 2.252000000000D+03 0.000000000000D+00
     2.000000000000D+00 0.000000000000D+00-1.862645000000D-09 2.060000000000D+02
     4.731000000000D+05 0.000000000000D+00
I09 2023 03 10 11 36 00 7.219286635518D-04 1.989519660128D-11 0.000000000000D+00
     2.070000000000D+02 1.207500000000D+02 4.530188700543D-09 2.035678422703D+00
     4.116445779800D-06 2.018121071160D-03-1.516565680504D-05 6.493497865677D+03
     4.737600000000D+05 3.725290298462D-09-1.209904735583D+00 2.421438694000D-07
     5.031413038206D-01 5.379375000000D+02-3.015706539894D+00-4.377325190307D-09
     2.728685089258D-10 0.000000000000D+00 2.252000000000D+03 0.000000000000D+00
     2.000000000000D+00 0.000000000000D+00-1.862645000000D-09 2.070000000000D+02
     4.740120000000D+05 0.000000000000D+00
I09 2023 03 10 12 00 00 7.219668477774D-04 2.057731762761D-11 0.000000000000D+00
     6.000000000000D+00 1.253125000000D+02 4.511616498365D-09 2.140590871539D+00
     4.328787326813D-06 2.017924212851D-03-1.526623964310D-05 6.493499364853D+03
     4.752000000000D+05-3.725290298462D-08-1.209909355478D+00 2.309679985046D-07
     5.031412599330D-01 5.413750000000D+02-3.015612259212D+00-4.355895726255D-09
     2.860833450911D-10 0.000000000000D+00 2.252000000000D+03 0.000000000000D+00
     2.000000000000D+00 0.000000000000D+00-1.862645000000D-09 6.000000000000D+00
     4.752120000000D+05 0.000000000000D+00
